ORBCOMM FM06            
1 25118U 97084G   26167.40423225  .00001010  00000+0  31096-3 0  9992
2 25118  45.0145  56.4813 0001245 329.5459 201.1029 14.47560986494275
ORBCOMM FM04            
1 25159U 98007C   26168.88217853  .00000650  00000+0  26812-3 0  9993
2 25159 107.9627 170.8497 0041369 323.5716  36.2612 14.35742430476697
ORBCOMM FM19            
1 25415U 98046C   26167.96377247  .00000555  00000+0  22169-3 0  9998
2 25415  44.9931 244.6235 0004562 280.6774 249.5203 14.39495243456741
ORBCOMM FM20            
1 25416U 98046D   26167.94348390  .00000434  00000+0  18843-3 0  9994
2 25416  44.9939 252.6402 0002269 249.6540 110.4065 14.38066173456751
ORBCOMM FM27            
1 25481U 98053G   26168.88170934  .00000708  00000+0  27222-3 0  9990
2 25481  45.0044 332.0538 0001079 195.6923 164.3893 14.39142426450330
ORBCOMM FM32            
1 25982U 99065C   26167.73430241  .00000343  00000+0  16182-3 0  9991
2 25982  45.0139 175.3840 0004505  32.3799 327.7325 14.37129394387027
ORBCOMM FM109           
1 40086U 14040A   26168.09830530  .00000333  00000+0  10662-3 0  9994
2 40086  47.0033  91.9065 0001915 246.6626 113.4059 14.58844767634331
ORBCOMM FM110           
1 41182U 15081D   26168.92574824  .00000540  00000+0  15044-3 0  9990
2 41182  47.0033 357.9511 0002494  80.4208 279.6960 14.58881675557736
ORBCOMM FM118           
1 41183U 15081E   26168.68605499  .00001999  00000+0  45885-3 0  9992
2 41183  47.0029 359.4159 0002673  33.4979 326.6076 14.58881230557805
ORBCOMM FM112           
1 41184U 15081F   26168.69060944  .00000436  00000+0  12845-3 0  9999
2 41184  46.9988 267.8667 0003758 219.7796 140.2814 14.58905026559021
ORBCOMM FM113           
1 41185U 15081G   26167.98238227  .00000280  00000+0  95480-4 0  9996
2 41185  47.0010 271.5920 0002254 223.6251 136.4456 14.58858314558906
ORBCOMM FM108           
1 41187U 15081J   26168.15023927  .00000279  00000+0  95355-4 0  9996
2 41187  47.0031 182.3720 0002952 221.4938 138.5724 14.58869994560079
ORBCOMM FM117           
1 41188U 15081K   26167.77331926  .00000187  00000+0  75792-4 0  9996
2 41188  46.9995 182.7879 0003453 223.2090 136.8525 14.58864783560062
ORBCOMM FM116           
1 41189U 15081L   26167.75377462  .00000488  00000+0  13931-3 0  9990
2 41189  47.0020 272.6710 0000581  62.4502 297.6443 14.58882755558877
